NORAD_CAT_ID,OBJECT_NAME,OBJECT_TYPE,EPOCH,MEAN_MOTION,ECCENTRICITY,INCLINATION,RA_OF_ASC_NODE,ARG_OF_PERICENTER,MEAN_ANOMALY,BSTAR,MEAN_MOTION_DOT,MEAN_MOTION_DDOT,TLE_LINE0,TLE_LINE1,TLE_LINE2,SEMIMAJOR_AXIS,PERIOD,APOGEE,PERIGEE,DECAYED
53142.0,STARLINK-4101,PAYLOAD,2024-04-05 17:11:56,15.08841697,0.0001409,53.217,89.8883,86.22,273.8954,4.0303e-05,3.54e-06,0.0,0 STARLINK-4101,1 53142U 22083L   24096.71662231  .00000354  00000-0  40303-4 0  9995,2 53142  53.2170  89.8883 0001409  86.2200 273.8954 15.08841697 95103,6917.875,95.437,540.715,538.765,0.0
53142.0,STARLINK-4101,PAYLOAD,2024-04-06 05:55:01,15.08837987,0.0001449,53.2173,87.5084,91.7228,268.393,3.9351e-05,3.38e-06,0.0,0 STARLINK-4101,1 53142U 22083L   24097.24654434  .00000338  00000-0  39351-4 0  9993,2 53142  53.2173  87.5084 0001449  91.7228 268.3930 15.08837987 95806,6917.887,95.438,540.754,538.749,0.0
53142.0,STARLINK-4101,PAYLOAD,2024-04-06 23:24:16,15.08835387,0.0001513,53.2178,84.2367,97.5361,262.5803,-3.036e-05,-7.71e-06,0.0,0 STARLINK-4101,1 53142U 22083L   24097.97518819 -.00000771  00000-0 -30360-4 0  9993,2 53142  53.2178  84.2367 0001513  97.5361 262.5803 15.08835387 95293,6917.894,95.438,540.806,538.713,0.0
53142.0,STARLINK-4101,PAYLOAD,2024-04-07 08:56:35,15.08833842,0.0001516,53.2181,82.4529,97.4448,262.6717,-2.5796e-05,-6.98e-06,0.0,0 STARLINK-4101,1 53142U 22083L   24098.37263026 -.00000698  00000-0 -25796-4 0  9990,2 53142  53.2181  82.4529 0001516  97.4448 262.6717 15.08833842 95979,6917.899,95.438,540.813,538.715,0.0
53142.0,STARLINK-4101,PAYLOAD,2024-04-08 08:47:22,15.08837762,0.0001344,53.2182,77.9958,94.8453,265.2692,3.7788e-05,3.14e-06,0.0,0 STARLINK-4101,1 53142U 22083L   24099.36622958  .00000314  00000-0  37788-4 0  9990,2 53142  53.2182  77.9958 0001344  94.8453 265.2692 15.08837762 95506,6917.887,95.438,540.682,538.822,0.0
53142.0,STARLINK-4101,PAYLOAD,2024-04-08 15:08:54,15.08837776,0.0001374,53.2182,76.8065,94.9607,265.1542,2.9076e-06,-2.42e-06,0.0,0 STARLINK-4101,1 53142U 22083L   24099.63119139 -.00000242  00000-0  29076-5 0  9995,2 53142  53.2182  76.8065 0001374  94.9607 265.1542 15.08837776 96169,6917.887,95.438,540.703,538.802,0.0
53142.0,STARLINK-4101,PAYLOAD,2024-04-08 21:30:27,15.08834604,0.0001362,53.218,75.6167,97.4133,262.7014,6.505e-05,7.47e-06,0.0,0 STARLINK-4101,1 53142U 22083L   24099.89615251  .00000747  00000-0  65050-4 0  9999,2 53142  53.2180  75.6167 0001362  97.4133 262.7014 15.08834604 95585,6917.897,95.438,540.704,538.82,0.0
53142.0,STARLINK-4101,PAYLOAD,2024-04-09 08:38:09,15.08837681,0.0001371,53.2183,73.5354,97.2835,262.8313,8.174e-05,1.013e-05,0.0,0 STARLINK-4101,1 53142U 22083L   24100.35983146  .00001013  00000-0  81740-4 0  9995,2 53142  53.2183  73.5354 0001371  97.2835 262.8313 15.08837681 95659,6917.887,95.438,540.701,538.804,0.0
53142.0,STARLINK-4101,PAYLOAD,2024-04-09 14:59:42,15.08837737,0.0001351,53.2184,72.3457,93.7138,266.4009,4.8072e-05,4.77e-06,0.0,0 STARLINK-4101,1 53142U 22083L   24100.62479322  .00000477  00000-0  48072-4 0  9995,2 53142  53.2184  72.3457 0001351  93.7138 266.4009 15.08837737 95694,6917.887,95.438,540.687,538.818,0.0
53142.0,STARLINK-4101,PAYLOAD,2024-04-10 05:18:10,15.08838601,0.0001387,53.2188,69.6695,91.3332,268.7819,3.3562e-05,2.46e-06,0.0,0 STARLINK-4101,1 53142U 22083L   24101.22095513  .00000246  00000-0  33562-4 0  9990,2 53142  53.2188  69.6695 0001387  91.3332 268.7819 15.08838601 96405,6917.885,95.438,540.709,538.79,0.0
53142.0,STARLINK-4101,PAYLOAD,2024-04-10 14:50:29,15.08836758,0.0001411,53.2191,67.8856,92.4038,267.7116,2.7497e-05,1.5e-06,0.0,0 STARLINK-4101,1 53142U 22083L   24101.61839680  .00000150  00000-0  27497-4 0  9998,2 53142  53.2191  67.8856 0001411  92.4038 267.7116 15.08836758 95848,6917.89,95.438,540.731,538.779,0.0
53142.0,STARLINK-4101,PAYLOAD,2024-04-11 05:08:57,15.08837514,0.000145,53.2192,65.2098,92.7063,267.4095,9.7339e-05,1.261e-05,0.0,0 STARLINK-4101,1 53142U 22083L   24102.21455502  .00001261  00000-0  97339-4 0  9998,2 53142  53.2192  65.2098 0001450  92.7063 267.4095 15.08837514 95937,6917.888,95.438,540.756,538.75,0.0
53142.0,STARLINK-4101,PAYLOAD,2024-04-11 14:41:16,15.08840057,0.0001464,53.2191,63.4245,87.4883,272.6276,3.5649e-05,2.79e-06,0.0,0 STARLINK-4101,1 53142U 22083L   24102.61199540  .00000279  00000-0  35649-4 0  9993,2 53142  53.2191  63.4245 0001464  87.4883 272.6276 15.08840057 96617,6917.88,95.438,540.758,538.732,0.0
53142.0,STARLINK-4101,PAYLOAD,2024-04-12 06:35:07,15.0884448,0.000141,53.2184,60.4496,91.8721,268.2433,6.8664e-05,8.05e-06,0.0,0 STARLINK-4101,1 53142U 22083L   24103.27439128  .00000805  00000-0  68664-4 0  9993,2 53142  53.2184  60.4496 0001410  91.8721 268.2433 15.08844480 96097,6917.867,95.437,540.707,538.756,0.0
53142.0,STARLINK-4101,PAYLOAD,2024-04-13 03:15:08,15.08843195,0.0001337,53.2178,56.5832,96.8144,263.3,-3.3744e-06,-3.42e-06,0.0,0 STARLINK-4101,1 53142U 22083L   24104.13551391 -.00000342  00000-0 -33744-5 0  9996,2 53142  53.2178  56.5832 0001337  96.8144 263.3000 15.08843195 96843,6917.871,95.437,540.661,538.811,0.0
53142.0,STARLINK-4101,PAYLOAD,2024-04-13 06:25:54,15.08845354,0.000135,53.2179,55.9868,97.7079,262.4066,2.0553e-05,3.9e-07,0.0,0 STARLINK-4101,1 53142U 22083L   24104.26799154  .00000039  00000-0  20553-4 0  9995,2 53142  53.2179  55.9868 0001350  97.7079 262.4066 15.08845354 96243,6917.864,95.437,540.663,538.795,0.0
53142.0,STARLINK-4101,PAYLOAD,2024-04-14 03:05:55,15.08843758,0.0001501,53.2187,52.1205,103.5979,256.518,3.5059e-05,2.7e-06,0.0,0 STARLINK-4101,1 53142U 22083L   24105.12911128  .00000270  00000-0  35059-4 0  9992,2 53142  53.2187  52.1205 0001501 103.5979 256.5180 15.08843758 96370,6917.869,95.437,540.772,538.696,0.0
53142.0,STARLINK-4101,PAYLOAD,2024-04-15 02:56:42,15.08840281,0.0001591,53.2202,47.659,102.4808,257.6362,2.1305e-05,5.1e-07,0.0,0 STARLINK-4101,1 53142U 22083L   24106.12271476  .00000051  00000-0  21305-4 0  9994,2 53142  53.2202  47.6590 0001591 102.4808 257.6362 15.08840281 97140,6917.88,95.438,540.845,538.644,0.0
53142.0,STARLINK-4101,PAYLOAD,2024-04-15 06:07:28,15.08840715,0.00016,53.2203,47.0643,103.6159,256.5012,2.4247e-05,9.8e-07,0.0,0 STARLINK-4101,1 53142U 22083L   24106.25519430  .00000098  00000-0  24247-4 0  9992,2 53142  53.2203  47.0643 0001600 103.6159 256.5012 15.08840715 96542,6917.878,95.438,540.85,538.636,0.0
53142.0,STARLINK-4101,PAYLOAD,2024-04-16 12:19:47,15.08851042,0.0001137,53.2187,41.4177,95.7185,264.3937,0.00014367,2e-05,0.0,0 STARLINK-4101,1 53142U 22083L   24107.51374224  .00002000  00000-0  14367-3 0  9998,2 53142  53.2187  41.4177 0001137  95.7185 264.3937 15.08851042 97356,6917.847,95.437,540.498,538.925,0.0
53142.0,STARLINK-4101,PAYLOAD,2024-04-16 23:27:29,15.08843767,0.0001374,53.2201,39.3394,96.0164,264.0985,6.2487e-05,7.07e-06,0.0,0 STARLINK-4101,1 53142U 22083L   24107.97742945  .00000707  00000-0  62487-4 0  9996,2 53142  53.2201  39.3394 0001374  96.0164 264.0985 15.08843767 97427,6917.869,95.437,540.684,538.783,0.0
53142.0,STARLINK-4101,PAYLOAD,2024-04-18 00:53:42,15.0883247,0.0001327,53.2185,34.5804,77.9205,282.1936,-0.00019603,-3.406e-05,0.0,0 STARLINK-4101,1 53142U 22083L   24109.03729290 -.00003406  00000-0 -19603-3 0  9995,2 53142  53.2185  34.5804 0001327  77.9205 282.1936 15.08832470 97586,6917.903,95.438,540.686,538.85,0.0
53142.0,STARLINK-4101,PAYLOAD,2024-04-19 03:55:13,15.0885788,0.0001471,53.2193,29.5226,87.871,272.2451,0.00011049,1.472e-05,0.0,0 STARLINK-4101,1 53142U 22083L   24110.16335025  .00001472  00000-0  11049-3 0  9995,2 53142  53.2193  29.5226 0001471  87.8710 272.2451 15.08857880 97751,6917.826,95.436,540.708,538.673,0.0
53142.0,STARLINK-4101,PAYLOAD,2024-04-20 03:45:58,15.08880664,0.0001773,53.2198,25.0637,99.8336,260.2857,0.00051723,7.962e-05,0.0,0 STARLINK-4101,1 53142U 22083L   24111.15692760  .00007962  00000-0  51723-3 0  9990,2 53142  53.2198  25.0637 0001773  99.8336 260.2857 15.08880664 97905,6917.756,95.435,540.848,538.395,0.0
53142.0,STARLINK-4101,PAYLOAD,2024-04-20 18:04:28,15.08858523,0.0002312,53.22,22.3892,92.2285,267.8972,3.4259e-06,-2.34e-06,0.0,0 STARLINK-4101,1 53142U 22083L   24111.75311271 -.00000234  00000-0  34259-5 0  9994,2 53142  53.2200  22.3892 0002312  92.2285 267.8972 15.08858523 97991,6917.824,95.436,541.288,538.089,0.0
53142.0,STARLINK-4101,PAYLOAD,2024-04-21 00:26:05,15.08799369,0.0001566,53.2194,21.1994,104.7824,255.3341,-0.00049183,-8.098e-05,0.0,0 STARLINK-4101,1 53142U 22083L   24112.01812137 -.00008098  00000-0 -49183-3 0  9998,2 53142  53.2194  21.1994 0001566 104.7824 255.3341 15.08799369 98031,6918.005,95.44,540.953,538.786,0.0
53142.0,STARLINK-4101,PAYLOAD,2024-04-21 17:55:18,15.08841684,0.0001578,53.2203,17.9283,91.8061,268.3112,-0.00042689,-7.076e-05,0.0,0 STARLINK-4101,1 53142U 22083L   24112.74674474 -.00007076  00000-0 -42689-3 0  9997,2 53142  53.2203  17.9283 0001578  91.8061 268.3112 15.08841684 98148,6917.875,95.437,540.832,538.649,0.0
53142.0,STARLINK-4101,PAYLOAD,2024-04-21 22:41:25,15.08872648,0.0001989,53.221,17.0367,97.8182,262.3036,-4.1364e-05,-9.47e-06,0.0,0 STARLINK-4101,1 53142U 22083L   24112.94543438 -.00000947  00000-0 -41364-4 0  9994,2 53142  53.2210  17.0367 0001989  97.8182 262.3036 15.08872648 97553,6917.781,95.435,541.022,538.27,0.0
53142.0,STARLINK-4101,PAYLOAD,2024-04-22 03:27:34,15.08878304,0.0001933,53.2196,16.1409,112.0475,248.0723,-5.0201e-05,-1.088e-05,0.0,0 STARLINK-4101,1 53142U 22083L   24113.14414625 -.00001088  00000-0 -50201-4 0  9999,2 53142  53.2196  16.1409 0001933 112.0475 248.0723 15.08878304 98209,6917.763,95.435,540.966,538.291,0.0
53142.0,STARLINK-4101,PAYLOAD,2024-04-22 20:56:51,15.08802064,0.0001566,53.2182,12.8762,109.2025,250.9137,0.00043813,6.685e-05,0.0,0 STARLINK-4101,1 53142U 22083L   24113.87282259  .00006685  00000-0  43813-3 0  9991,2 53142  53.2182  12.8762 0001566 109.2025 250.9137 15.08802064 98313,6917.996,95.44,540.945,538.778,0.0
